{
  "type": "FeatureCollection",
  "features": [
    {
      "type": "Feature",
      "properties": {
        "norad_id": 35245,
        "name": "FENGYUN 1C DEB",
        "group": "fengyun-1c-debris",
        "lat": -45.654727764843884,
        "lon": 93.5202419398007,
        "alt_km": 844.5104921502352,
        "timestamp": "2025-12-24T09:46:31.292199+00:00",
        "meta_object_name": "FENGYUN 1C DEB",
        "meta_object_id": "1999-025DRD",
        "meta_epoch": "2025-12-19T04:23:32.034624",
        "meta_mean_motion": 14.13126838,
        "meta_eccentricity": 0.00598047,
        "meta_inclination": 99.0852,
        "meta_ra_of_asc_node": 78.797,
        "meta_arg_of_pericenter": 252.485,
        "meta_mean_anomaly": 137.634,
        "meta_ephemeris_type": 0,
        "meta_classification_type": "U",
        "meta_norad_cat_id": 35245,
        "meta_element_set_no": 999,
        "meta_rev_at_epoch": 87868,
        "meta_bstar": 0.0014532577,
        "meta_mean_motion_dot": 2.717e-05,
        "meta_mean_motion_ddot": 0,
        "tle_line1": "1 35245U 99025DRD 25353.18300966  .00002717  00000+0  14533-2 0  9999",
        "tle_line2": "2 35245  99.0852  78.7970 0059804 252.4850 137.6340 14.13126838878682"
      },
      "geometry": {
        "type": "Point",
        "coordinates": [
          93.5202419398007,
          -45.654727764843884
        ]
      }
    },
    {
      "type": "Feature",
      "properties": {
        "norad_id": 36147,
        "name": "FENGYUN 1C DEB",
        "group": "fengyun-1c-debris",
        "lat": 73.11386164044735,
        "lon": 35.34265052431232,
        "alt_km": 1381.3168569375557,
        "timestamp": "2025-12-24T09:46:31.292209+00:00",
        "meta_object_name": "FENGYUN 1C DEB",
        "meta_object_id": "1999-025DRU",
        "meta_epoch": "2025-12-20T21:33:23.692032",
        "meta_mean_motion": 13.46553882,
        "meta_eccentricity": 0.0442924,
        "meta_inclination": 98.5255,
        "meta_ra_of_asc_node": 61.9559,
        "meta_arg_of_pericenter": 242.0095,
        "meta_mean_anomaly": 113.5561,
        "meta_ephemeris_type": 0,
        "meta_classification_type": "U",
        "meta_norad_cat_id": 36147,
        "meta_element_set_no": 999,
        "meta_rev_at_epoch": 60107,
        "meta_bstar": 0.0014721,
        "meta_mean_motion_dot": 1.576e-05,
        "meta_mean_motion_ddot": 0,
        "tle_line1": "1 36147U 99025DRU 25354.89819088  .00001576  00000+0  14721-2 0  9991",
        "tle_line2": "2 36147  98.5255  61.9559 0442924 242.0095 113.5561 13.46553882601070"
      },
      "geometry": {
        "type": "Point",
        "coordinates": [
          35.34265052431232,
          73.11386164044735
        ]
      }
    },
    {
      "type": "Feature",
      "properties": {
        "norad_id": 36148,
        "name": "FENGYUN 1C DEB",
        "group": "fengyun-1c-debris",
        "lat": -19.153335493035758,
        "lon": 25.0916132649499,
        "alt_km": 1047.1859694595769,
        "timestamp": "2025-12-24T09:46:31.292219+00:00",
        "meta_object_name": "FENGYUN 1C DEB",
        "meta_object_id": "1999-025DRV",
        "meta_epoch": "2025-12-19T19:33:59.340096",
        "meta_mean_motion": 13.85003317,
        "meta_eccentricity": 0.02860047,
        "meta_inclination": 98.4226,
        "meta_ra_of_asc_node": 203.9107,
        "meta_arg_of_pericenter": 330.6122,
        "meta_mean_anomaly": 27.9209,
        "meta_ephemeris_type": 0,
        "meta_classification_type": "U",
        "meta_norad_cat_id": 36148,
        "meta_element_set_no": 999,
        "meta_rev_at_epoch": 90342,
        "meta_bstar": 0.0023912593,
        "meta_mean_motion_dot": 3.68e-05,
        "meta_mean_motion_ddot": 0,
        "tle_line1": "1 36148U 99025DRV 25353.81527014  .00003680  00000+0  23913-2 0  9999",
        "tle_line2": "2 36148  98.4226 203.9107 0286004 330.6122  27.9209 13.85003317903422"
      },
      "geometry": {
        "type": "Point",
        "coordinates": [
          25.0916132649499,
          -19.153335493035758
        ]
      }
    },
    {
      "type": "Feature",
      "properties": {
        "norad_id": 36152,
        "name": "FENGYUN 1C DEB",
        "group": "fengyun-1c-debris",
        "lat": -70.00204571595559,
        "lon": 63.08417895496275,
        "alt_km": 854.8299408612456,
        "timestamp": "2025-12-24T09:46:31.292229+00:00",
        "meta_object_name": "FENGYUN 1C DEB",
        "meta_object_id": "1999-025DRZ",
        "meta_epoch": "2025-12-18T08:24:14.818464",
        "meta_mean_motion": 14.17273973,
        "meta_eccentricity": 0.00557903,
        "meta_inclination": 98.7554,
        "meta_ra_of_asc_node": 32.0659,
        "meta_arg_of_pericenter": 196.1632,
        "meta_mean_anomaly": 163.7765,
        "meta_ephemeris_type": 0,
        "meta_classification_type": "U",
        "meta_norad_cat_id": 36152,
        "meta_element_set_no": 999,
        "meta_rev_at_epoch": 64236,
        "meta_bstar": 0.00095568478,
        "meta_mean_motion_dot": 1.917e-05,
        "meta_mean_motion_ddot": 0,
        "tle_line1": "1 36152U 99025DRZ 25352.35017151  .00001917  00000+0  95568-3 0  9995",
        "tle_line2": "2 36152  98.7554  32.0659 0055790 196.1632 163.7765 14.17273973642366"
      },
      "geometry": {
        "type": "Point",
        "coordinates": [
          63.08417895496275,
          -70.00204571595559
        ]
      }
    },
    {
      "type": "Feature",
      "properties": {
        "norad_id": 36160,
        "name": "FENGYUN 1C DEB",
        "group": "fengyun-1c-debris",
        "lat": -58.742088936423826,
        "lon": -147.3787154764277,
        "alt_km": 953.0012404984582,
        "timestamp": "2025-12-24T09:46:31.292239+00:00",
        "meta_object_name": "FENGYUN 1C DEB",
        "meta_object_id": "1999-025DSH",
        "meta_epoch": "2025-12-12T19:23:25.399104",
        "meta_mean_motion": 14.13217835,
        "meta_eccentricity": 0.0135077,
        "meta_inclination": 98.1387,
        "meta_ra_of_asc_node": 188.429,
        "meta_arg_of_pericenter": 152.2609,
        "meta_mean_anomaly": 208.5855,
        "meta_ephemeris_type": 0,
        "meta_classification_type": "U",
        "meta_norad_cat_id": 36160,
        "meta_element_set_no": 999,
        "meta_rev_at_epoch": 60053,
        "meta_bstar": 0.00034837814,
        "meta_mean_motion_dot": 6.74e-06,
        "meta_mean_motion_ddot": 0,
        "tle_line1": "1 36160U 99025DSH 25346.80793286  .00000674  00000+0  34838-3 0  9999",
        "tle_line2": "2 36160  98.1387 188.4290 0135077 152.2609 208.5855 14.13217835600536"
      },
      "geometry": {
        "type": "Point",
        "coordinates": [
          -147.3787154764277,
          -58.742088936423826
        ]
      }
    },
    {
      "type": "Feature",
      "properties": {
        "norad_id": 36163,
        "name": "FENGYUN 1C DEB",
        "group": "fengyun-1c-debris",
        "lat": 22.634139908497485,
        "lon": -160.25267039845266,
        "alt_km": 667.9907526261704,
        "timestamp": "2025-12-24T09:46:31.292249+00:00",
        "meta_object_name": "FENGYUN 1C DEB",
        "meta_object_id": "1999-025DSL",
        "meta_epoch": "2025-12-19T12:50:06.955008",
        "meta_mean_motion": 14.59242955,
        "meta_eccentricity": 0.0039086,
        "meta_inclination": 99.0787,
        "meta_ra_of_asc_node": 198.2455,
        "meta_arg_of_pericenter": 50.867,
        "meta_mean_anomaly": 309.5991,
        "meta_ephemeris_type": 0,
        "meta_classification_type": "U",
        "meta_norad_cat_id": 36163,
        "meta_element_set_no": 999,
        "meta_rev_at_epoch": 89286,
        "meta_bstar": 0.0021304,
        "meta_mean_motion_dot": 0.0001012,
        "meta_mean_motion_ddot": 0,
        "tle_line1": "1 36163U 99025DSL 25353.53480272  .00010120  00000+0  21304-2 0  9998",
        "tle_line2": "2 36163  99.0787 198.2455 0039086  50.8670 309.5991 14.59242955892862"
      },
      "geometry": {
        "type": "Point",
        "coordinates": [
          -160.25267039845266,
          22.634139908497485
        ]
      }
    },
    {
      "type": "Feature",
      "properties": {
        "norad_id": 36167,
        "name": "FENGYUN 1C DEB",
        "group": "fengyun-1c-debris",
        "lat": 59.80116387768806,
        "lon": -109.36191076871002,
        "alt_km": 763.2507921764382,
        "timestamp": "2025-12-24T09:46:31.292259+00:00",
        "meta_object_name": "FENGYUN 1C DEB",
        "meta_object_id": "1999-025DSQ",
        "meta_epoch": "2025-12-21T23:29:57.430752",
        "meta_mean_motion": 14.49314917,
        "meta_eccentricity": 0.00688049,
        "meta_inclination": 98.8145,
        "meta_ra_of_asc_node": 263.5651,
        "meta_arg_of_pericenter": 216.098,
        "meta_mean_anomaly": 143.5557,
        "meta_ephemeris_type": 0,
        "meta_classification_type": "U",
        "meta_norad_cat_id": 36167,
        "meta_element_set_no": 999,
        "meta_rev_at_epoch": 67413,
        "meta_bstar": 0.00094360862,
        "meta_mean_motion_dot": 3.662e-05,
        "meta_mean_motion_ddot": 0,
        "tle_line1": "1 36167U 99025DSQ 25355.97913693  .00003662  00000+0  94361-3 0  9997",
        "tle_line2": "2 36167  98.8145 263.5651 0068804 216.0980 143.5557 14.49314917674134"
      },
      "geometry": {
        "type": "Point",
        "coordinates": [
          -109.36191076871002,
          59.80116387768806
        ]
      }
    }
  ]
}